ONEWEB-0320             
1 49190U 21083E   26141.07427503 -.00000003  00000+0 -40720-4 0  9990
2 49190  87.9160 340.8602 0001781  87.2704 272.8632 13.18686501226407
ONEWEB-0321             
1 49191U 21083F   26141.08010709 -.00000011  00000+0 -59007-4 0  9995
2 49191  87.9171 279.8404 0001628  95.3704 264.7616 13.20770455233259
ONEWEB-0322             
1 49192U 21083G   26141.03616977  .00000295  00000+0  77255-3 0  9996
2 49192  87.8934 325.6462 0001623  76.9530 283.1780 13.13471743227358
ONEWEB-0324             
1 49193U 21083H   26141.27492842 -.00000019  00000+0 -79869-4 0  9996
2 49193  87.9173 340.8045 0001741  92.0675 268.0657 13.18685181226454
ONEWEB-0325             
1 49194U 21083J   26141.27829298  .00000068  00000+0  13967-3 0  9994
2 49194  87.9163 340.8150 0001877  86.1063 274.0283 13.18685599226462
ONEWEB-0326             
1 49195U 21083K   26141.06598027 -.00000023  00000+0 -91831-4 0  9995
2 49195  87.9172 340.8527 0002146  89.7735 270.3643 13.18684537226422
ONEWEB-0327             
1 49196U 21083L   26141.29333046 -.00000038  00000+0 -13020-3 0  9998
2 49196  87.9162 340.8139 0002259  87.3740 272.7651 13.18685548226479
ONEWEB-0328             
1 49197U 21083M   26141.02600959  .00000160  00000+0  40318-3 0  9994
2 49197  87.8945 325.6186 0001717  95.5168 264.6157 13.13472160227330
ONEWEB-0331             
1 49198U 21083N   26141.28673188  .00000060  00000+0  12054-3 0  9992
2 49198  87.9167 340.8027 0002054  94.0909 266.0458 13.18683590226462
ONEWEB-0333             
1 49199U 21083P   26141.24945588 -.00000235  00000+0 -67966-3 0  9993
2 49199  87.8937 325.6029 0001845  89.9369 270.1972 13.13469772227377
ONEWEB-0334             
1 49200U 21083Q   26141.09778213  .00000077  00000+0  15803-3 0  9993
2 49200  87.9168 279.8494 0001336  70.7597 289.3681 13.20768784233211
ONEWEB-0335             
1 49201U 21083R   26141.24439354 -.00000186  00000+0 -54493-3 0  9992
2 49201  87.8940 325.6006 0001981  94.4762 265.6593 13.13468905227385
ONEWEB-0336             
1 49202U 21083S   26141.21560708 -.00000113  00000+0 -34425-3 0  9991
2 49202  87.8941 325.6024 0002040 100.7060 259.4299 13.13470951227373
ONEWEB-0337             
1 49203U 21083T   26141.22562798 -.00000236  00000+0 -68028-3 0  9996
2 49203  87.8937 325.6068 0001783  97.3134 262.8198 13.13471372227377
ONEWEB-0338             
1 49204U 21083U   26140.61714509  .00000037  00000+0  58179-4 0  9992
2 49204  87.9162 279.9493 0001663  90.3648 269.7676 13.20773266233179
ONEWEB-0339             
1 49205U 21083V   26141.08186865 -.00000451  00000+0 -12694-2 0  9995
2 49205  87.8936 325.6274 0001528  85.5468 274.5836 13.13470423227334
