[{"OBJECT_NAME":"ONEWEB-0320","OBJECT_ID":"2021-083E","EPOCH":"2026-05-21T01:46:57.362592","MEAN_MOTION":13.18686501,"ECCENTRICITY":0.0001781,"INCLINATION":87.916,"RA_OF_ASC_NODE":340.8602,"ARG_OF_PERICENTER":87.2704,"MEAN_ANOMALY":272.8632,"EPHEMERIS_TYPE":0,"CLASSIFICATION_TYPE":"U","NORAD_CAT_ID":49190,"ELEMENT_SET_NO":999,"REV_AT_EPOCH":22640,"BSTAR":-4.072e-05,"MEAN_MOTION_DOT":-3e-08,"MEAN_MOTION_DDOT":0.0},{"OBJECT_NAME":"ONEWEB-0321","OBJECT_ID":"2021-083F","EPOCH":"2026-05-21T01:55:21.252576","MEAN_MOTION":13.20770455,"ECCENTRICITY":0.0001628,"INCLINATION":87.9171,"RA_OF_ASC_NODE":279.8404,"ARG_OF_PERICENTER":95.3704,"MEAN_ANOMALY":264.7616,"EPHEMERIS_TYPE":0,"CLASSIFICATION_TYPE":"U","NORAD_CAT_ID":49191,"ELEMENT_SET_NO":999,"REV_AT_EPOCH":23325,"BSTAR":-5.9007e-05,"MEAN_MOTION_DOT":-1.1e-07,"MEAN_MOTION_DDOT":0.0},{"OBJECT_NAME":"ONEWEB-0322","OBJECT_ID":"2021-083G","EPOCH":"2026-05-21T00:52:05.068128","MEAN_MOTION":13.13471743,"ECCENTRICITY":0.0001623,"INCLINATION":87.8934,"RA_OF_ASC_NODE":325.6462,"ARG_OF_PERICENTER":76.953,"MEAN_ANOMALY":283.178,"EPHEMERIS_TYPE":0,"CLASSIFICATION_TYPE":"U","NORAD_CAT_ID":49192,"ELEMENT_SET_NO":999,"REV_AT_EPOCH":22735,"BSTAR":0.00077255,"MEAN_MOTION_DOT":2.95e-06,"MEAN_MOTION_DDOT":0.0},{"OBJECT_NAME":"ONEWEB-0324","OBJECT_ID":"2021-083H","EPOCH":"2026-05-21T06:35:53.815488","MEAN_MOTION":13.18685181,"ECCENTRICITY":0.0001741,"INCLINATION":87.9173,"RA_OF_ASC_NODE":340.8045,"ARG_OF_PERICENTER":92.0675,"MEAN_ANOMALY":268.0657,"EPHEMERIS_TYPE":0,"CLASSIFICATION_TYPE":"U","NORAD_CAT_ID":49193,"ELEMENT_SET_NO":999,"REV_AT_EPOCH":22645,"BSTAR":-7.9869e-05,"MEAN_MOTION_DOT":-1.9e-07,"MEAN_MOTION_DDOT":0.0},{"OBJECT_NAME":"ONEWEB-0325","OBJECT_ID":"2021-083J","EPOCH":"2026-05-21T06:40:44.513472","MEAN_MOTION":13.18685599,"ECCENTRICITY":0.0001877,"INCLINATION":87.9163,"RA_OF_ASC_NODE":340.815,"ARG_OF_PERICENTER":86.1063,"MEAN_ANOMALY":274.0283,"EPHEMERIS_TYPE":0,"CLASSIFICATION_TYPE":"U","NORAD_CAT_ID":49194,"ELEMENT_SET_NO":999,"REV_AT_EPOCH":22646,"BSTAR":0.00013967,"MEAN_MOTION_DOT":6.8e-07,"MEAN_MOTION_DDOT":0.0},{"OBJECT_NAME":"ONEWEB-0326","OBJECT_ID":"2021-083K","EPOCH":"2026-05-21T01:35:00.695328","MEAN_MOTION":13.18684537,"ECCENTRICITY":0.0002146,"INCLINATION":87.9172,"RA_OF_ASC_NODE":340.8527,"ARG_OF_PERICENTER":89.7735,"MEAN_ANOMALY":270.3643,"EPHEMERIS_TYPE":0,"CLASSIFICATION_TYPE":"U","NORAD_CAT_ID":49195,"ELEMENT_SET_NO":999,"REV_AT_EPOCH":22642,"BSTAR":-9.1831e-05,"MEAN_MOTION_DOT":-2.3e-07,"MEAN_MOTION_DDOT":0.0},{"OBJECT_NAME":"ONEWEB-0327","OBJECT_ID":"2021-083L","EPOCH":"2026-05-21T07:02:23.751744","MEAN_MOTION":13.18685548,"ECCENTRICITY":0.0002259,"INCLINATION":87.9162,"RA_OF_ASC_NODE":340.8139,"ARG_OF_PERICENTER":87.374,"MEAN_ANOMALY":272.7651,"EPHEMERIS_TYPE":0,"CLASSIFICATION_TYPE":"U","NORAD_CAT_ID":49196,"ELEMENT_SET_NO":999,"REV_AT_EPOCH":22647,"BSTAR":-0.00013020000000000002,"MEAN_MOTION_DOT":-3.8e-07,"MEAN_MOTION_DDOT":0.0},{"OBJECT_NAME":"ONEWEB-0328","OBJECT_ID":"2021-083M","EPOCH":"2026-05-21T00:37:27.228576","MEAN_MOTION":13.1347216,"ECCENTRICITY":0.0001717,"INCLINATION":87.8945,"RA_OF_ASC_NODE":325.6186,"ARG_OF_PERICENTER":95.5168,"MEAN_ANOMALY":264.6157,"EPHEMERIS_TYPE":0,"CLASSIFICATION_TYPE":"U","NORAD_CAT_ID":49197,"ELEMENT_SET_NO":999,"REV_AT_EPOCH":22733,"BSTAR":0.00040318,"MEAN_MOTION_DOT":1.6e-06,"MEAN_MOTION_DDOT":0.0},{"OBJECT_NAME":"ONEWEB-0331","OBJECT_ID":"2021-083N","EPOCH":"2026-05-21T06:52:53.634432","MEAN_MOTION":13.1868359,"ECCENTRICITY":0.0002054,"INCLINATION":87.9167,"RA_OF_ASC_NODE":340.8027,"ARG_OF_PERICENTER":94.0909,"MEAN_ANOMALY":266.0458,"EPHEMERIS_TYPE":0,"CLASSIFICATION_TYPE":"U","NORAD_CAT_ID":49198,"ELEMENT_SET_NO":999,"REV_AT_EPOCH":22646,"BSTAR":0.00012054,"MEAN_MOTION_DOT":6e-07,"MEAN_MOTION_DDOT":0.0},{"OBJECT_NAME":"ONEWEB-0333","OBJECT_ID":"2021-083P","EPOCH":"2026-05-21T05:59:12.988032","MEAN_MOTION":13.13469772,"ECCENTRICITY":0.0001845,"INCLINATION":87.8937,"RA_OF_ASC_NODE":325.6029,"ARG_OF_PERICENTER":89.9369,"MEAN_ANOMALY":270.1972,"EPHEMERIS_TYPE":0,"CLASSIFICATION_TYPE":"U","NORAD_CAT_ID":49199,"ELEMENT_SET_NO":999,"REV_AT_EPOCH":22737,"BSTAR":-0.00067966,"MEAN_MOTION_DOT":-2.35e-06,"MEAN_MOTION_DDOT":0.0},{"OBJECT_NAME":"ONEWEB-0334","OBJECT_ID":"2021-083Q","EPOCH":"2026-05-21T02:20:48.376032","MEAN_MOTION":13.20768784,"ECCENTRICITY":0.0001336,"INCLINATION":87.9168,"RA_OF_ASC_NODE":279.8494,"ARG_OF_PERICENTER":70.7597,"MEAN_ANOMALY":289.3681,"EPHEMERIS_TYPE":0,"CLASSIFICATION_TYPE":"U","NORAD_CAT_ID":49200,"ELEMENT_SET_NO":999,"REV_AT_EPOCH":23321,"BSTAR":0.00015803,"MEAN_MOTION_DOT":7.7e-07,"MEAN_MOTION_DDOT":0.0},{"OBJECT_NAME":"ONEWEB-0335","OBJECT_ID":"2021-083R","EPOCH":"2026-05-21T05:51:55.601856","MEAN_MOTION":13.13468905,"ECCENTRICITY":0.0001981,"INCLINATION":87.894,"RA_OF_ASC_NODE":325.6006,"ARG_OF_PERICENTER":94.4762,"MEAN_ANOMALY":265.6593,"EPHEMERIS_TYPE":0,"CLASSIFICATION_TYPE":"U","NORAD_CAT_ID":49201,"ELEMENT_SET_NO":999,"REV_AT_EPOCH":22738,"BSTAR":-0.00054493,"MEAN_MOTION_DOT":-1.86e-06,"MEAN_MOTION_DDOT":0.0},{"OBJECT_NAME":"ONEWEB-0336","OBJECT_ID":"2021-083S","EPOCH":"2026-05-21T05:10:28.451712","MEAN_MOTION":13.13470951,"ECCENTRICITY":0.000204,"INCLINATION":87.8941,"RA_OF_ASC_NODE":325.6024,"ARG_OF_PERICENTER":100.706,"MEAN_ANOMALY":259.4299,"EPHEMERIS_TYPE":0,"CLASSIFICATION_TYPE":"U","NORAD_CAT_ID":49202,"ELEMENT_SET_NO":999,"REV_AT_EPOCH":22737,"BSTAR":-0.00034425,"MEAN_MOTION_DOT":-1.13e-06,"MEAN_MOTION_DDOT":0.0},{"OBJECT_NAME":"ONEWEB-0337","OBJECT_ID":"2021-083T","EPOCH":"2026-05-21T05:24:54.257472","MEAN_MOTION":13.13471372,"ECCENTRICITY":0.0001783,"INCLINATION":87.8937,"RA_OF_ASC_NODE":325.6068,"ARG_OF_PERICENTER":97.3134,"MEAN_ANOMALY":262.8198,"EPHEMERIS_TYPE":0,"CLASSIFICATION_TYPE":"U","NORAD_CAT_ID":49203,"ELEMENT_SET_NO":999,"REV_AT_EPOCH":22737,"BSTAR":-0.00068028,"MEAN_MOTION_DOT":-2.36e-06,"MEAN_MOTION_DDOT":0.0},{"OBJECT_NAME":"ONEWEB-0338","OBJECT_ID":"2021-083U","EPOCH":"2026-05-20T14:48:41.335776","MEAN_MOTION":13.20773266,"ECCENTRICITY":0.0001663,"INCLINATION":87.9162,"RA_OF_ASC_NODE":279.9493,"ARG_OF_PERICENTER":90.3648,"MEAN_ANOMALY":269.7676,"EPHEMERIS_TYPE":0,"CLASSIFICATION_TYPE":"U","NORAD_CAT_ID":49204,"ELEMENT_SET_NO":999,"REV_AT_EPOCH":23317,"BSTAR":5.8179000000000007e-05,"MEAN_MOTION_DOT":3.7e-07,"MEAN_MOTION_DDOT":0.0},{"OBJECT_NAME":"ONEWEB-0339","OBJECT_ID":"2021-083V","EPOCH":"2026-05-21T01:57:53.451360","MEAN_MOTION":13.13470423,"ECCENTRICITY":0.0001528,"INCLINATION":87.8936,"RA_OF_ASC_NODE":325.6274,"ARG_OF_PERICENTER":85.5468,"MEAN_ANOMALY":274.5836,"EPHEMERIS_TYPE":0,"CLASSIFICATION_TYPE":"U","NORAD_CAT_ID":49205,"ELEMENT_SET_NO":999,"REV_AT_EPOCH":22733,"BSTAR":-0.0012694,"MEAN_MOTION_DOT":-4.51e-06,"MEAN_MOTION_DDOT":0.0}]